{"type": "FeatureCollection", "features": [ {"type": "Feature", "properties": {"norad_id": 41175, "name": "GSAT0208 (GALILEO 11)", "group": "galileo", "lat": -55.24028683640109, "lon": 27.228975014414168, "alt_km": 23228.628559577213, "timestamp": "2025-12-03T04:52:29.900044+00:00", "meta": {"OBJECT_NAME": "GSAT0208 (GALILEO 11)", "OBJECT_ID": "2015-079B", "EPOCH": "2025-11-30T09:46:10.644960", "MEAN_MOTION": 1.70474193, "ECCENTRICITY": 0.00018872, "INCLINATION": 55.7038, "RA_OF_ASC_NODE": 106.7167, "ARG_OF_PERICENTER": 11.7228, "MEAN_ANOMALY": 348.2564, "EPHEMERIS_TYPE": 0, "CLASSIFICATION_TYPE": "U", "NORAD_CAT_ID": 41175, "ELEMENT_SET_NO": 999, "REV_AT_EPOCH": 6180, "BSTAR": 0, "MEAN_MOTION_DOT": 4.8e-07, "MEAN_MOTION_DDOT": 0}, "tle": {"line1": "1 41175U 15079B   25334.40706765  .00000048  00000+0  00000+0 0  9992", "line2": "2 41175  55.7038 106.7167 0001887  11.7228 348.2564  1.70474193 61804"}}, "geometry": {"type": "Point", "coordinates": [27.228975014414168, -55.24028683640109]}}, {"type": "Feature", "properties": {"norad_id": 41549, "name": "GSAT0211 (GALILEO 14)", "group": "galileo", "lat": -16.26060666805904, "lon": 58.79401498832608, "alt_km": 23236.02267702028, "timestamp": "2025-12-03T04:52:29.900069+00:00", "meta": {"OBJECT_NAME": "GSAT0211 (GALILEO 14)", "OBJECT_ID": "2016-030A", "EPOCH": "2025-12-01T16:54:04.942368", "MEAN_MOTION": 1.70472896, "ECCENTRICITY": 0.00038995, "INCLINATION": 55.1563, "RA_OF_ASC_NODE": 227.1275, "ARG_OF_PERICENTER": 10.5053, "MEAN_ANOMALY": 349.5828, "EPHEMERIS_TYPE": 0, "CLASSIFICATION_TYPE": "U", "NORAD_CAT_ID": 41549, "ELEMENT_SET_NO": 999, "REV_AT_EPOCH": 5930, "BSTAR": 0, "MEAN_MOTION_DOT": 3.3e-07, "MEAN_MOTION_DDOT": 0}, "tle": {"line1": "1 41549U 16030A   25335.70422387  .00000033  00000+0  00000+0 0  9998", "line2": "2 41549  55.1563 227.1275 0003899  10.5053 349.5828  1.70472896 59309"}}, "geometry": {"type": "Point", "coordinates": [58.79401498832608, -16.26060666805904]}}, {"type": "Feature", "properties": {"norad_id": 41550, "name": "GSAT0210 (GALILEO 13)", "group": "galileo", "lat": 33.2480853162949, "lon": -105.78264931028087, "alt_km": 23221.584148370872, "timestamp": "2025-12-03T04:52:29.900083+00:00", "meta": {"OBJECT_NAME": "GSAT0210 (GALILEO 13)", "OBJECT_ID": "2016-030B", "EPOCH": "2025-12-01T09:00:06.320160", "MEAN_MOTION": 1.70473417, "ECCENTRICITY": 0.00012162, "INCLINATION": 55.1557, "RA_OF_ASC_NODE": 227.1346, "ARG_OF_PERICENTER": 241.6156, "MEAN_ANOMALY": 118.4503, "EPHEMERIS_TYPE": 0, "CLASSIFICATION_TYPE": "U", "NORAD_CAT_ID": 41550, "ELEMENT_SET_NO": 999, "REV_AT_EPOCH": 5929, "BSTAR": 0, "MEAN_MOTION_DOT": 3.2e-07, "MEAN_MOTION_DDOT": 0}, "tle": {"line1": "1 41550U 16030B   25335.37507315  .00000032  00000+0  00000+0 0  9997", "line2": "2 41550  55.1557 227.1346 0001216 241.6156 118.4503  1.70473417 59296"}}, "geometry": {"type": "Point", "coordinates": [-105.78264931028087, 33.2480853162949]}}, {"type": "Feature", "properties": {"norad_id": 41859, "name": "GSAT0207 (GALILEO 15)", "group": "galileo", "lat": -39.83502462094341, "lon": -38.33245768469822, "alt_km": 23227.407403931215, "timestamp": "2025-12-03T04:52:29.900095+00:00", "meta": {"OBJECT_NAME": "GSAT0207 (GALILEO 15)", "OBJECT_ID": "2016-069A", "EPOCH": "2025-11-30T11:31:32.297952", "MEAN_MOTION": 1.70474248, "ECCENTRICITY": 0.00020596, "INCLINATION": 55.375, "RA_OF_ASC_NODE": 106.5899, "ARG_OF_PERICENTER": 325.7449, "MEAN_ANOMALY": 34.2162, "EPHEMERIS_TYPE": 0, "CLASSIFICATION_TYPE": "U", "NORAD_CAT_ID": 41859, "ELEMENT_SET_NO": 999, "REV_AT_EPOCH": 5601, "BSTAR": 0, "MEAN_MOTION_DOT": 4.7e-07, "MEAN_MOTION_DDOT": 0}, "tle": {"line1": "1 41859U 16069A   25334.48023493  .00000047  00000+0  00000+0 0  9998", "line2": "2 41859  55.3750 106.5899 0002059 325.7449  34.2162  1.70474248 56019"}}, "geometry": {"type": "Point", "coordinates": [-38.33245768469822, -39.83502462094341]}}, {"type": "Feature", "properties": {"norad_id": 41860, "name": "GSAT0212 (GALILEO 16)", "group": "galileo", "lat": -31.24825114642003, "lon": 81.71431739715861, "alt_km": 23224.178109845183, "timestamp": "2025-12-03T04:52:29.900107+00:00", "meta": {"OBJECT_NAME": "GSAT0212 (GALILEO 16)", "OBJECT_ID": "2016-069B", "EPOCH": "2025-12-02T02:14:50.667072", "MEAN_MOTION": 1.70474451, "ECCENTRICITY": 0.0002264, "INCLINATION": 55.3734, "RA_OF_ASC_NODE": 106.5405, "ARG_OF_PERICENTER": 34.5338, "MEAN_ANOMALY": 325.4448, "EPHEMERIS_TYPE": 0, "CLASSIFICATION_TYPE": "U", "NORAD_CAT_ID": 41860, "ELEMENT_SET_NO": 999, "REV_AT_EPOCH": 5629, "BSTAR": 0, "MEAN_MOTION_DOT": 3.3e-07, "MEAN_MOTION_DDOT": 0}, "tle": {"line1": "1 41860U 16069B   25336.09364198  .00000033  00000+0  00000+0 0  9994", "line2": "2 41860  55.3734 106.5405 0002264  34.5338 325.4448  1.70474451 56294"}}, "geometry": {"type": "Point", "coordinates": [81.71431739715861, -31.24825114642003]}}, {"type": "Feature", "properties": {"norad_id": 41861, "name": "GSAT0213 (GALILEO 17)", "group": "galileo", "lat": 55.01436268626503, "lon": -154.164317702484, "alt_km": 23221.775765962095, "timestamp": "2025-12-03T04:52:29.900118+00:00", "meta": {"OBJECT_NAME": "GSAT0213 (GALILEO 17)", "OBJECT_ID": "2016-069C", "EPOCH": "2025-12-01T20:59:28.954752", "MEAN_MOTION": 1.70474717, "ECCENTRICITY": 0.00020626, "INCLINATION": 55.3756, "RA_OF_ASC_NODE": 106.5542, "ARG_OF_PERICENTER": 284.0381, "MEAN_ANOMALY": 75.9044, "EPHEMERIS_TYPE": 0, "CLASSIFICATION_TYPE": "U", "NORAD_CAT_ID": 41861, "ELEMENT_SET_NO": 999, "REV_AT_EPOCH": 5615, "BSTAR": 0, "MEAN_MOTION_DOT": 3.5e-07, "MEAN_MOTION_DDOT": 0}, "tle": {"line1": "1 41861U 16069C   25335.87464068  .00000035  00000+0  00000+0 0  9999", "line2": "2 41861  55.3756 106.5542 0002062 284.0381  75.9044  1.70474717 56156"}}, "geometry": {"type": "Point", "coordinates": [-154.164317702484, 55.01436268626503]}}, {"type": "Feature", "properties": {"norad_id": 41862, "name": "GSAT0214 (GALILEO 18)", "group": "galileo", "lat": 4.714722608155233, "lon": 109.75446585834226, "alt_km": 23220.89034265504, "timestamp": "2025-12-03T04:52:29.900129+00:00", "meta": {"OBJECT_NAME": "GSAT0214 (GALILEO 18)", "OBJECT_ID": "2016-069D", "EPOCH": "2025-12-02T14:34:22.700352", "MEAN_MOTION": 1.70474512, "ECCENTRICITY": 0.0001109, "INCLINATION": 55.3745, "RA_OF_ASC_NODE": 106.5268, "ARG_OF_PERICENTER": 291.2976, "MEAN_ANOMALY": 68.6511, "EPHEMERIS_TYPE": 0, "CLASSIFICATION_TYPE": "U", "NORAD_CAT_ID": 41862, "ELEMENT_SET_NO": 999, "REV_AT_EPOCH": 5629, "BSTAR": 0, "MEAN_MOTION_DOT": 2.8e-07, "MEAN_MOTION_DDOT": 0}, "tle": {"line1": "1 41862U 16069D   25336.60720718  .00000028  00000+0  00000+0 0  9991", "line2": "2 41862  55.3745 106.5268 0001109 291.2976  68.6511  1.70474512 56297"}}, "geometry": {"type": "Point", "coordinates": [109.75446585834226, 4.714722608155233]}}, {"type": "Feature", "properties": {"norad_id": 43055, "name": "GSAT0215 (GALILEO 19)", "group": "galileo", "lat": 48.024033136655376, "lon": -82.40002384039461, "alt_km": 23218.438725833777, "timestamp": "2025-12-03T04:52:29.900140+00:00", "meta": {"OBJECT_NAME": "GSAT0215 (GALILEO 19)", "OBJECT_ID": "2017-079A", "EPOCH": "2025-11-29T13:52:03.216864", "MEAN_MOTION": 1.70473718, "ECCENTRICITY": 0.0001588, "INCLINATION": 55.1353, "RA_OF_ASC_NODE": 227.0004, "ARG_OF_PERICENTER": 310.5234, "MEAN_ANOMALY": 49.536, "EPHEMERIS_TYPE": 0, "CLASSIFICATION_TYPE": "U", "NORAD_CAT_ID": 43055, "ELEMENT_SET_NO": 999, "REV_AT_EPOCH": 4958, "BSTAR": 0, "MEAN_MOTION_DOT": 2.7e-07, "MEAN_MOTION_DDOT": 0}, "tle": {"line1": "1 43055U 17079A   25333.57781501  .00000027  00000+0  00000+0 0  9998", "line2": "2 43055  55.1353 227.0004 0001588 310.5234  49.5360  1.70473718 49587"}}, "geometry": {"type": "Point", "coordinates": [-82.40002384039461, 48.024033136655376]}}, {"type": "Feature", "properties": {"norad_id": 43056, "name": "GSAT0216 (GALILEO 20)", "group": "galileo", "lat": -48.63035761350513, "lon": 99.13345595039853, "alt_km": 23224.470201383094, "timestamp": "2025-12-03T04:52:29.900151+00:00", "meta": {"OBJECT_NAME": "GSAT0216 (GALILEO 20)", "OBJECT_ID": "2017-079B", "EPOCH": "2025-12-01T01:00:54.249120", "MEAN_MOTION": 1.70473856, "ECCENTRICITY": 0.00027137, "INCLINATION": 55.1346, "RA_OF_ASC_NODE": 226.9601, "ARG_OF_PERICENTER": 312.5245, "MEAN_ANOMALY": 47.5297, "EPHEMERIS_TYPE": 0, "CLASSIFICATION_TYPE": "U", "NORAD_CAT_ID": 43056, "ELEMENT_SET_NO": 999, "REV_AT_EPOCH": 4962, "BSTAR": 0, "MEAN_MOTION_DOT": 3.1e-07, "MEAN_MOTION_DDOT": 0}, "tle": {"line1": "1 43056U 17079B   25335.04229455  .00000031  00000+0  00000+0 0  9993", "line2": "2 43056  55.1346 226.9601 0002713 312.5245  47.5297  1.70473856 49621"}}, "geometry": {"type": "Point", "coordinates": [99.13345595039853, -48.63035761350513]}}, {"type": "Feature", "properties": {"norad_id": 43057, "name": "GSAT0217 (GALILEO 21)", "group": "galileo", "lat": 50.13812686895414, "lon": -9.592268753367822, "alt_km": 23219.75011443597, "timestamp": "2025-12-03T04:52:29.900168+00:00", "meta": {"OBJECT_NAME": "GSAT0217 (GALILEO 21)", "OBJECT_ID": "2017-079C", "EPOCH": "2025-12-02T10:28:08.868000", "MEAN_MOTION": 1.70473685, "ECCENTRICITY": 0.0002612, "INCLINATION": 55.1312, "RA_OF_ASC_NODE": 226.9197, "ARG_OF_PERICENTER": 354.1722, "MEAN_ANOMALY": 5.9091, "EPHEMERIS_TYPE": 0, "CLASSIFICATION_TYPE": "U", "NORAD_CAT_ID": 43057, "ELEMENT_SET_NO": 999, "REV_AT_EPOCH": 4963, "BSTAR": 0, "MEAN_MOTION_DOT": 3.7e-07, "MEAN_MOTION_DDOT": 0}, "tle": {"line1": "1 43057U 17079C   25336.43621375  .00000037  00000+0  00000+0 0  9991", "line2": "2 43057  55.1312 226.9197 0002612 354.1722   5.9091  1.70473685 49636"}}, "geometry": {"type": "Point", "coordinates": [-9.592268753367822, 50.13812686895414]}}]}